ONEWEB-0461             
1 51649U 22012AD  24201.83069420  .00000122  00000+0  28084-3 0  9992
2 51649  87.9188 144.7122 0002174  80.9263 279.2114 13.17649489123342
ONEWEB-0463             
1 51650U 22012AE  24201.35730073 -.00000106  00000+0 -30659-3 0  9995
2 51650  87.9189 144.8544 0002176  80.5667 279.5710 13.17647812121778
ONEWEB-0464             
1 51651U 22012AF  24201.50716256 -.00000351  00000+0 -10403-2 0  9996
2 51651  87.8963 175.0261 0001940  73.3889 286.7451 13.10376109117952
ONEWEB-0468             
1 51652U 22012AG  24201.89559322 -.00000082  00000+0 -27114-3 0  9997
2 51652  87.8962 174.9421 0002053  81.7876 278.3484 13.10375700119279
ONEWEB-0473             
1 51653U 22012AH  24201.42250119 -.00000594  00000+0 -17368-2 0  9996
2 51653  87.8960 175.0389 0002142  81.6318 278.5052 13.10374163117927
ONEWEB-0474             
1 51654U 22012AJ  24201.49055569 -.00000548  00000+0 -16067-2 0  9990
2 51654  87.8946 175.0193 0002124  77.3682 282.7683 13.10371278117922
ONEWEB-0475             
1 51655U 22012AK  24201.90017330 -.00000019  00000+0 -81516-4 0  9997
2 51655  87.9191 144.7261 0002322  70.3404 289.7978 13.17648452123154
ONEWEB-0490             
1 54113U 22138A   24201.92334817  .00000040  00000+0  68209-4 0  9998
2 54113  87.9130  83.7086 0001829  74.5592 285.5742 13.19724270 85730
